{
  "type": "FeatureCollection",
  "features": [
    {
      "type": "Feature",
      "properties": {
        "norad_id": 30468,
        "name": "FENGYUN 1C DEB",
        "group": "fengyun-1c-debris",
        "lat": -31.421464970374387,
        "lon": -126.2799208612837,
        "alt_km": 872.4321511589123,
        "timestamp": "2025-12-03T19:33:07.252694+00:00",
        "meta_object_name": "FENGYUN 1C DEB",
        "meta_object_id": "1999-025AGF",
        "meta_epoch": "2025-12-03T05:09:46.030176",
        "meta_mean_motion": 14.20610654,
        "meta_eccentricity": 0.0072663,
        "meta_inclination": 98.9232,
        "meta_ra_of_asc_node": 58.6229,
        "meta_arg_of_pericenter": 67.6322,
        "meta_mean_anomaly": 319.1334,
        "meta_ephemeris_type": 0,
        "meta_classification_type": "U",
        "meta_norad_cat_id": 30468,
        "meta_element_set_no": 999,
        "meta_rev_at_epoch": 96675,
        "meta_bstar": 0.0020163,
        "meta_mean_motion_dot": 4.413e-05,
        "meta_mean_motion_ddot": 0,
        "tle_line1": "1 30468U 99025AGF 25337.21511609  .00004413  00000+0  20163-2 0  9996",
        "tle_line2": "2 30468  98.9232  58.6229 0072663  67.6322 319.1334 14.20610654966754"
      },
      "geometry": {
        "type": "Point",
        "coordinates": [
          -126.2799208612837,
          -31.421464970374387
        ]
      }
    },
    {
      "type": "Feature",
      "properties": {
        "norad_id": 30469,
        "name": "FENGYUN 1C DEB",
        "group": "fengyun-1c-debris",
        "lat": -74.34295140430739,
        "lon": -22.942001003650844,
        "alt_km": 857.6502700212968,
        "timestamp": "2025-12-03T19:33:07.252705+00:00",
        "meta_object_name": "FENGYUN 1C DEB",
        "meta_object_id": "1999-025AGG",
        "meta_epoch": "2025-12-02T13:14:28.450752",
        "meta_mean_motion": 13.96474058,
        "meta_eccentricity": 0.0158495,
        "meta_inclination": 98.4787,
        "meta_ra_of_asc_node": 188.0477,
        "meta_arg_of_pericenter": 198.3076,
        "meta_mean_anomaly": 191.1442,
        "meta_ephemeris_type": 0,
        "meta_classification_type": "U",
        "meta_norad_cat_id": 30469,
        "meta_element_set_no": 999,
        "meta_rev_at_epoch": 95564,
        "meta_bstar": 0.00093894851,
        "meta_mean_motion_dot": 1.403e-05,
        "meta_mean_motion_ddot": 0,
        "tle_line1": "1 30469U 99025AGG 25336.55171818  .00001403  00000+0  93895-3 0  9996",
        "tle_line2": "2 30469  98.4787 188.0477 0158495 198.3076 191.1442 13.96474058955646"
      },
      "geometry": {
        "type": "Point",
        "coordinates": [
          -22.942001003650844,
          -74.34295140430739
        ]
      }
    },
    {
      "type": "Feature",
      "properties": {
        "norad_id": 30471,
        "name": "FENGYUN 1C DEB",
        "group": "fengyun-1c-debris",
        "lat": 20.552671937467355,
        "lon": -111.26798151228107,
        "alt_km": 875.961003821114,
        "timestamp": "2025-12-03T19:33:07.252715+00:00",
        "meta_object_name": "FENGYUN 1C DEB",
        "meta_object_id": "1999-025AGJ",
        "meta_epoch": "2025-12-03T05:19:59.825280",
        "meta_mean_motion": 14.13522544,
        "meta_eccentricity": 0.0081562,
        "meta_inclination": 99.0547,
        "meta_ra_of_asc_node": 64.7048,
        "meta_arg_of_pericenter": 280.3344,
        "meta_mean_anomaly": 106.4423,
        "meta_ephemeris_type": 0,
        "meta_classification_type": "U",
        "meta_norad_cat_id": 30471,
        "meta_element_set_no": 999,
        "meta_rev_at_epoch": 96308,
        "meta_bstar": 0.0022968,
        "meta_mean_motion_dot": 4.42e-05,
        "meta_mean_motion_ddot": 0,
        "tle_line1": "1 30471U 99025AGJ 25337.22222020  .00004420  00000+0  22968-2 0  9990",
        "tle_line2": "2 30471  99.0547  64.7048 0081562 280.3344 106.4423 14.13522544963083"
      },
      "geometry": {
        "type": "Point",
        "coordinates": [
          -111.26798151228107,
          20.552671937467355
        ]
      }
    },
    {
      "type": "Feature",
      "properties": {
        "norad_id": 30472,
        "name": "FENGYUN 1C DEB",
        "group": "fengyun-1c-debris",
        "lat": 59.878298157868805,
        "lon": 63.415588081298154,
        "alt_km": 689.2770452460054,
        "timestamp": "2025-12-03T19:33:07.252725+00:00",
        "meta_object_name": "FENGYUN 1C DEB",
        "meta_object_id": "1999-025AGK",
        "meta_epoch": "2025-12-03T06:11:01.881024",
        "meta_mean_motion": 14.53461632,
        "meta_eccentricity": 0.0038757,
        "meta_inclination": 98.6528,
        "meta_ra_of_asc_node": 78.057,
        "meta_arg_of_pericenter": 108.6195,
        "meta_mean_anomaly": 279.9531,
        "meta_ephemeris_type": 0,
        "meta_classification_type": "U",
        "meta_norad_cat_id": 30472,
        "meta_element_set_no": 999,
        "meta_rev_at_epoch": 97903,
        "meta_bstar": 0.0034113,
        "meta_mean_motion_dot": 0.00014335,
        "meta_mean_motion_ddot": 0,
        "tle_line1": "1 30472U 99025AGK 25337.25766066  .00014335  00000+0  34113-2 0  9998",
        "tle_line2": "2 30472  98.6528  78.0570 0038757 108.6195 279.9531 14.53461632979032"
      },
      "geometry": {
        "type": "Point",
        "coordinates": [
          63.415588081298154,
          59.878298157868805
        ]
      }
    },
    {
      "type": "Feature",
      "properties": {
        "norad_id": 30474,
        "name": "FENGYUN 1C DEB",
        "group": "fengyun-1c-debris",
        "lat": 81.06286483180153,
        "lon": -32.56996279886467,
        "alt_km": 750.0577639974808,
        "timestamp": "2025-12-03T19:33:07.252735+00:00",
        "meta_object_name": "FENGYUN 1C DEB",
        "meta_object_id": "1999-025AGM",
        "meta_epoch": "2025-12-02T18:38:44.877120",
        "meta_mean_motion": 14.37546714,
        "meta_eccentricity": 0.00231885,
        "meta_inclination": 98.9299,
        "meta_ra_of_asc_node": 55.2786,
        "meta_arg_of_pericenter": 35.8352,
        "meta_mean_anomaly": 86.2218,
        "meta_ephemeris_type": 0,
        "meta_classification_type": "U",
        "meta_norad_cat_id": 30474,
        "meta_element_set_no": 999,
        "meta_rev_at_epoch": 97250,
        "meta_bstar": 0.0027843343,
        "meta_mean_motion_dot": 8.333e-05,
        "meta_mean_motion_ddot": 0,
        "tle_line1": "1 30474U 99025AGM 25336.77690830  .00008333  00000+0  27843-2 0  9994",
        "tle_line2": "2 30474  98.9299  55.2786 0023188  35.8352  86.2218 14.37546714972509"
      },
      "geometry": {
        "type": "Point",
        "coordinates": [
          -32.56996279886467,
          81.06286483180153
        ]
      }
    },
    {
      "type": "Feature",
      "properties": {
        "norad_id": 30475,
        "name": "FENGYUN 1C DEB",
        "group": "fengyun-1c-debris",
        "lat": 39.27724358311298,
        "lon": -153.26740014952142,
        "alt_km": 867.4414147745056,
        "timestamp": "2025-12-03T19:33:07.252746+00:00",
        "meta_object_name": "FENGYUN 1C DEB",
        "meta_object_id": "1999-025AGN",
        "meta_epoch": "2025-12-03T02:11:15.347904",
        "meta_mean_motion": 14.15632369,
        "meta_eccentricity": 0.00420892,
        "meta_inclination": 98.7885,
        "meta_ra_of_asc_node": 18.7509,
        "meta_arg_of_pericenter": 318.9607,
        "meta_mean_anomaly": 95.9613,
        "meta_ephemeris_type": 0,
        "meta_classification_type": "U",
        "meta_norad_cat_id": 30475,
        "meta_element_set_no": 999,
        "meta_rev_at_epoch": 96815,
        "meta_bstar": 0.00093335332,
        "meta_mean_motion_dot": 1.8e-05,
        "meta_mean_motion_ddot": 0,
        "tle_line1": "1 30475U 99025AGN 25337.09114986  .00001800  00000+0  93335-3 0  9996",
        "tle_line2": "2 30475  98.7885  18.7509 0042089 318.9607  95.9613 14.15632369968155"
      },
      "geometry": {
        "type": "Point",
        "coordinates": [
          -153.26740014952142,
          39.27724358311298
        ]
      }
    },
    {
      "type": "Feature",
      "properties": {
        "norad_id": 30476,
        "name": "FENGYUN 1C DEB",
        "group": "fengyun-1c-debris",
        "lat": 80.83319938296466,
        "lon": -80.34959701575912,
        "alt_km": 833.6201775793279,
        "timestamp": "2025-12-03T19:33:07.252757+00:00",
        "meta_object_name": "FENGYUN 1C DEB",
        "meta_object_id": "1999-025AGP",
        "meta_epoch": "2025-12-03T02:30:37.244736",
        "meta_mean_motion": 14.20817217,
        "meta_eccentricity": 0.00447724,
        "meta_inclination": 99.1258,
        "meta_ra_of_asc_node": 13.989,
        "meta_arg_of_pericenter": 327.5872,
        "meta_mean_anomaly": 92.8493,
        "meta_ephemeris_type": 0,
        "meta_classification_type": "U",
        "meta_norad_cat_id": 30476,
        "meta_element_set_no": 999,
        "meta_rev_at_epoch": 96708,
        "meta_bstar": 0.0018045551,
        "meta_mean_motion_dot": 3.892e-05,
        "meta_mean_motion_ddot": 0,
        "tle_line1": "1 30476U 99025AGP 25337.10459774  .00003892  00000+0  18046-2 0  9994",
        "tle_line2": "2 30476  99.1258  13.9890 0044772 327.5872  92.8493 14.20817217967082"
      },
      "geometry": {
        "type": "Point",
        "coordinates": [
          -80.34959701575912,
          80.83319938296466
        ]
      }
    }
  ]
}